[{"OBJECT_NAME":"ONEWEB-0211","OBJECT_ID":"2021-045A","EPOCH":"2026-03-09T19:58:40.747584","MEAN_MOTION":13.16144279,"ECCENTRICITY":0.00020549,"INCLINATION":87.894,"RA_OF_ASC_NODE":278.9406,"ARG_OF_PERICENTER":95.5043,"MEAN_ANOMALY":264.6322,"EPHEMERIS_TYPE":0,"CLASSIFICATION_TYPE":"U","NORAD_CAT_ID":48767,"ELEMENT_SET_NO":999,"REV_AT_EPOCH":23137,"BSTAR":-0.00021893639,"MEAN_MOTION_DOT":-7.0e-7,"MEAN_MOTION_DDOT":0},{"OBJECT_NAME":"FENGYUN 1C DEB","OBJECT_ID":"1999-025ESH","EPOCH":"2026-03-08T19:55:19.566048","MEAN_MOTION":12.96794972,"ECCENTRICITY":0.05560243,"INCLINATION":99.6971,"RA_OF_ASC_NODE":83.7492,"ARG_OF_PERICENTER":236.188,"MEAN_ANOMALY":118.5101,"EPHEMERIS_TYPE":0,"CLASSIFICATION_TYPE":"U","NORAD_CAT_ID":38498,"ELEMENT_SET_NO":999,"REV_AT_EPOCH":54859,"BSTAR":0.00094418428,"MEAN_MOTION_DOT":5.13e-6,"MEAN_MOTION_DDOT":0}]
